NORAD_CAT_ID,OBJECT_NAME,OBJECT_TYPE,EPOCH,MEAN_MOTION,ECCENTRICITY,INCLINATION,RA_OF_ASC_NODE,ARG_OF_PERICENTER,MEAN_ANOMALY,BSTAR,MEAN_MOTION_DOT,MEAN_MOTION_DDOT,TLE_LINE0,TLE_LINE1,TLE_LINE2,SEMIMAJOR_AXIS,PERIOD,APOGEE,PERIGEE,DECAYED
54102.0,STARLINK-5179,PAYLOAD,2024-06-18 00:16:13,15.08838315,0.0001329,53.2179,280.8791,93.4145,266.6999,4.2237e-05,3.84e-06,0.0,0 STARLINK-5179,1 54102U 22136BD  24170.01126854  .00000384  00000-0  42237-4 0  9994,2 54102  53.2179 280.8791 0001329  93.4145 266.6999 15.08838315 92399,6917.886,95.438,540.67,538.831,0.0
54102.0,STARLINK-5179,PAYLOAD,2024-06-18 14:34:41,15.0884106,0.0001425,53.2186,278.2025,98.7704,261.345,6.6505e-05,7.71e-06,0.0,0 STARLINK-5179,1 54102U 22136BD  24170.60742704  .00000771  00000-0  66505-4 0  9991,2 54102  53.2186 278.2025 0001425  98.7704 261.3450 15.08841060 92018,6917.877,95.437,540.728,538.756,0.0
54102.0,STARLINK-5179,PAYLOAD,2024-06-19 12:50:06,15.08833916,0.0001456,53.2175,274.0376,106.3785,253.7367,5.1496e-05,5.32e-06,0.0,0 STARLINK-5179,1 54102U 22136BD  24171.53479472  .00000532  00000-0  51496-4 0  9991,2 54102  53.2175 274.0376 0001456 106.3785 253.7367 15.08833916 92628,6917.899,95.438,540.771,538.757,0.0
54102.0,STARLINK-5179,PAYLOAD,2024-06-19 14:25:29,15.08835835,0.0001337,53.217,273.7401,100.835,259.2793,6.9397e-05,8.17e-06,0.0,0 STARLINK-5179,1 54102U 22136BD  24171.60103335  .00000817  00000-0  69397-4 0  9996,2 54102  53.2170 273.7401 0001337 100.8350 259.2793 15.08835835 92168,6917.893,95.438,540.683,538.833,0.0
54102.0,STARLINK-5179,PAYLOAD,2024-06-20 14:16:16,15.0884235,0.0001215,53.2172,269.2807,82.6015,277.5116,0.00010105,1.321e-05,0.0,0 STARLINK-5179,1 54102U 22136BD  24172.59463050  .00001321  00000-0  10105-3 0  9991,2 54102  53.2172 269.2807 0001215  82.6015 277.5116 15.08842350 92319,6917.873,95.437,540.579,538.898,0.0
54102.0,STARLINK-5179,PAYLOAD,2024-06-21 12:31:40,15.08839712,0.000141,53.2168,265.1175,85.6471,274.4682,5.9576e-05,6.6e-06,0.0,0 STARLINK-5179,1 54102U 22136BD  24173.52199397  .00000660  00000-0  59576-4 0  9996,2 54102  53.2168 265.1175 0001410  85.6471 274.4682 15.08839712 92922,6917.881,95.438,540.722,538.771,0.0
54102.0,STARLINK-5179,PAYLOAD,2024-06-21 15:42:26,15.08844891,0.0001442,53.2171,264.5219,85.8595,274.2562,8.5614e-05,1.075e-05,0.0,0 STARLINK-5179,1 54102U 22136BD  24173.65446988  .00001075  00000-0  85614-4 0  9994,2 54102  53.2171 264.5219 0001442  85.8595 274.2562 15.08844891 92471,6917.865,95.437,540.728,538.733,0.0
54102.0,STARLINK-5179,PAYLOAD,2024-06-22 12:22:27,15.0884023,0.000145,53.2175,260.6546,92.6058,267.51,-5.9848e-05,-1.24e-05,0.0,0 STARLINK-5179,1 54102U 22136BD  24174.51559776 -.00001240  00000-0 -59848-4 0  9996,2 54102  53.2175 260.6546 0001450  92.6058 267.5100 15.08840230 92605,6917.88,95.438,540.748,538.742,0.0
54102.0,STARLINK-5179,PAYLOAD,2024-06-23 12:13:14,15.08801692,0.0001864,53.2176,256.1936,109.9679,250.1514,0.0006022,9.299e-05,0.0,0 STARLINK-5179,1 54102U 22136BD  24175.50920054  .00009299  00000-0  60220-3 0  9992,2 54102  53.2176 256.1936 0001864 109.9679 250.1514 15.08801692 93224,6917.997,95.44,541.152,538.573,0.0
54102.0,STARLINK-5179,PAYLOAD,2024-06-24 04:07:05,15.08840605,0.0001491,53.2171,253.2221,97.4271,262.6891,9.6551e-05,1.249e-05,0.0,0 STARLINK-5179,1 54102U 22136BD  24176.17159128  .00001249  00000-0  96551-4 0  9996,2 54102  53.2171 253.2221 0001491  97.4271 262.6891 15.08840605 93323,6917.879,95.438,540.775,538.712,0.0
54102.0,STARLINK-5179,PAYLOAD,2024-06-24 12:04:01,15.08841164,0.0001451,53.2169,251.7345,94.1856,265.9302,7.1026e-05,8.43e-06,0.0,0 STARLINK-5179,1 54102U 22136BD  24176.50279199  .00000843  00000-0  71026-4 0  9993,2 54102  53.2169 251.7345 0001451  94.1856 265.9302 15.08841164 92906,6917.877,95.437,540.746,538.738,0.0
54102.0,STARLINK-5179,PAYLOAD,2024-06-25 11:54:48,15.08837977,0.0001481,53.2172,247.2744,96.9903,263.1258,-2.025e-05,-6.1e-06,0.0,0 STARLINK-5179,1 54102U 22136BD  24177.49639764 -.00000610  00000-0 -20250-4 0  9997,2 54102  53.2172 247.2744 0001481  96.9903 263.1258 15.08837977 93525,6917.887,95.438,540.776,538.727,0.0
54102.0,STARLINK-5179,PAYLOAD,2024-06-26 11:45:36,15.08807808,0.0001369,53.2167,242.8099,92.8222,267.2927,0.00052925,8.138e-05,0.0,0 STARLINK-5179,1 54102U 22136BD  24178.49000072  .00008138  00000-0  52925-3 0  9996,2 54102  53.2167 242.8099 0001369  92.8222 267.2927 15.08807808 93671,6917.979,95.44,540.791,538.897,0.0
54102.0,STARLINK-5179,PAYLOAD,2024-06-27 11:36:23,15.08837242,0.0001366,53.2164,238.351,73.4993,286.6149,9.4707e-06,-1.37e-06,0.0,0 STARLINK-5179,1 54102U 22136BD  24179.48360093 -.00000137  00000-0  94707-5 0  9996,2 54102  53.2164 238.3510 0001366  73.4993 286.6149 15.08837242 93826,6917.889,95.438,540.699,538.809,0.0
54102.0,STARLINK-5179,PAYLOAD,2024-06-28 09:51:46,15.08839428,0.0001023,53.2154,234.1876,86.7601,273.3508,7.4678e-05,9.01e-06,0.0,0 STARLINK-5179,1 54102U 22136BD  24180.41095694  .00000901  00000-0  74678-4 0  9995,2 54102  53.2154 234.1876 0001023  86.7601 273.3508 15.08839428 93490,6917.882,95.438,540.455,539.039,0.0
54102.0,STARLINK-5179,PAYLOAD,2024-06-29 12:53:19,15.08850732,0.0001237,53.2152,229.1327,90.3163,269.7971,0.00013839,1.916e-05,0.0,0 STARLINK-5179,1 54102U 22136BD  24181.53702681  .00001916  00000-0  13839-3 0  9998,2 54102  53.2152 229.1327 0001237  90.3163 269.7971 15.08850732 94130,6917.848,95.437,540.568,538.857,0.0
54102.0,STARLINK-5179,PAYLOAD,2024-06-29 20:50:15,15.08836918,0.0001281,53.2156,227.6383,115.1319,244.9806,3.662e-06,-2.3e-06,0.0,0 STARLINK-5179,1 54102U 22136BD  24181.86824018 -.00000230  00000-0  36620-5 0  9997,2 54102  53.2156 227.6383 0001281 115.1319 244.9806 15.08836918 93712,6917.89,95.438,540.641,538.869,0.0
54102.0,STARLINK-5179,PAYLOAD,2024-06-30 12:44:08,15.08831245,0.0001456,53.2166,224.6734,90.7327,269.3832,-9.7585e-05,-1.84e-05,0.0,0 STARLINK-5179,1 54102U 22136BD  24182.53064994 -.00001840  00000-0 -97585-4 0  9996,2 54102  53.2166 224.6734 0001456  90.7327 269.3832 15.08831245 94282,6917.907,95.438,540.779,538.765,0.0
54102.0,STARLINK-5179,PAYLOAD,2024-07-01 03:02:35,15.08838633,0.0001333,53.2164,221.999,102.1184,257.9957,1.7755e-05,-5e-08,0.0,0 STARLINK-5179,1 54102U 22136BD  24183.12680203 -.00000005  00000-0  17755-4 0  9991,2 54102  53.2164 221.9990 0001333 102.1184 257.9957 15.08838633 94376,6917.885,95.438,540.672,538.827,0.0
54102.0,STARLINK-5179,PAYLOAD,2024-07-01 09:24:07,15.08844054,0.000128,53.216,220.8099,90.7246,269.3893,5.4995e-05,5.88e-06,0.0,0 STARLINK-5179,1 54102U 22136BD  24183.39175869  .00000588  00000-0  54995-4 0  9999,2 54102  53.2160 220.8099 0001280  90.7246 269.3893 15.08844054 93944,6917.868,95.437,540.618,538.848,0.0
54102.0,STARLINK-5179,PAYLOAD,2024-07-01 18:56:26,15.08844387,0.0001297,53.2157,219.0257,88.144,271.9701,1.9411e-05,2.1e-07,0.0,0 STARLINK-5179,1 54102U 22136BD  24183.78919920  .00000021  00000-0  19411-4 0  9992,2 54102  53.2157 219.0257 0001297  88.1440 271.9701 15.08844387 94005,6917.867,95.437,540.629,538.835,0.0
54102.0,STARLINK-5179,PAYLOAD,2024-07-02 09:14:55,15.08841965,0.0001338,53.2149,216.3481,81.4594,278.6549,0.00030485,4.567e-05,0.0,0 STARLINK-5179,1 54102U 22136BD  24184.38535935  .00004567  00000-0  30485-3 0  9991,2 54102  53.2149 216.3481 0001338  81.4594 278.6549 15.08841965 94561,6917.874,95.437,540.665,538.814,0.0
54102.0,STARLINK-5179,PAYLOAD,2024-07-02 18:47:14,15.08840657,0.0001307,53.2133,214.5637,76.7332,283.3805,0.00010136,1.326e-05,0.0,0 STARLINK-5179,1 54102U 22136BD  24184.78280181  .00001326  00000-0  10136-3 0  9996,2 54102  53.2133 214.5637 0001307  76.7332 283.3805 15.08840657 94150,6917.878,95.438,540.648,538.839,0.0
54102.0,STARLINK-5179,PAYLOAD,2024-07-03 09:05:43,15.08831628,0.0001382,53.2155,211.8894,91.8175,268.2976,-3.5386e-05,-8.51e-06,0.0,0 STARLINK-5179,1 54102U 22136BD  24185.37897290 -.00000851  00000-0 -35386-4 0  9996,2 54102  53.2155 211.8894 0001382  91.8175 268.2976 15.08831628 94716,6917.906,95.438,540.727,538.815,0.0
54102.0,STARLINK-5179,PAYLOAD,2024-07-03 18:38:01,15.08836154,0.00014,53.216,210.1046,89.0924,271.0229,1.5224e-06,-2.64e-06,0.0,0 STARLINK-5179,1 54102U 22136BD  24185.77640964 -.00000264  00000-0  15224-5 0  9991,2 54102  53.2160 210.1046 0001400  89.0924 271.0229 15.08836154 94302,6917.892,95.438,540.726,538.789,0.0
54102.0,STARLINK-5179,PAYLOAD,2024-07-04 08:56:29,15.08842022,0.0001369,53.2157,207.4286,93.0959,267.019,-9.1453e-06,-4.33e-06,0.0,0 STARLINK-5179,1 54102U 22136BD  24186.37256554 -.00000433  00000-0 -91453-5 0  9993,2 54102  53.2157 207.4286 0001369  93.0959 267.0190 15.08842022 94392,6917.874,95.437,540.686,538.792,0.0
54102.0,STARLINK-5179,PAYLOAD,2024-07-04 18:28:48,15.08841153,0.0001355,53.2154,205.644,91.579,268.5358,3.5239e-05,2.73e-06,0.0,0 STARLINK-5179,1 54102U 22136BD  24186.77000432  .00000273  00000-0  35239-4 0  9998,2 54102  53.2154 205.6440 0001355  91.5790 268.5358 15.08841153 94927,6917.877,95.437,540.679,538.804,0.0
54102.0,STARLINK-5179,PAYLOAD,2024-07-05 08:47:16,15.08839844,0.000128,53.2155,202.966,92.1035,268.0103,0.00012483,1.699e-05,0.0,0 STARLINK-5179,1 54102U 22136BD  24187.36616428  .00001699  00000-0  12483-3 0  9990,2 54102  53.2155 202.9660 0001280  92.1035 268.0103 15.08839844 94543,6917.881,95.438,540.631,538.86,0.0
54102.0,STARLINK-5179,PAYLOAD,2024-07-05 18:19:35,15.08837926,0.0001256,53.2151,201.1812,90.4465,269.6671,8.782e-05,1.11e-05,0.0,0 STARLINK-5179,1 54102U 22136BD  24187.76360696  .00001110  00000-0  87820-4 0  9993,2 54102  53.2151 201.1812 0001256  90.4465 269.6671 15.08837926 94603,6917.887,95.438,540.621,538.883,0.0
54102.0,STARLINK-5179,PAYLOAD,2024-07-06 05:27:17,15.08837863,0.0001319,53.2155,199.0997,90.9076,269.2067,4.9119e-05,4.94e-06,0.0,0 STARLINK-5179,1 54102U 22136BD  24188.22728886  .00000494  00000-0  49119-4 0  9997,2 54102  53.2155 199.0997 0001319  90.9076 269.2067 15.08837863 95144,6917.887,95.438,540.664,538.839,0.0
